[
    {
        "ARG_OF_PERICENTER": "111.0372",
        "BSTAR": "0.00067601",
        "CLASSIFICATION_TYPE": "U",
        "COMMENT": "GENERATED VIA SPACETRACK.ORG API",
        "ECCENTRICITY": "0.1844781",
        "ELEMENT_SET_NO": "999",
        "EPHEMERIS_TYPE": "0",
        "EPOCH": "2015-04-11 12:40:20",
        "EPOCH_MICROSECONDS": "844191",
        "FILE": "1854516",
        "INCLINATION": "34.2452",
        "INTLDES": "58002B",
        "MEAN_ANOMALY": "269.6771",
        "MEAN_MOTION": "10.84560666",
        "MEAN_MOTION_DDOT": "0",
        "MEAN_MOTION_DOT": "5.11e-06",
        "NORAD_CAT_ID": "5",
        "OBJECT_ID": "1958-002B",
        "OBJECT_NAME": "VANGUARD 1",
        "OBJECT_NUMBER": "5",
        "OBJECT_TYPE": "PAYLOAD",
        "ORDINAL": "1",
        "ORIGINATOR": "JSPOC",
        "RA_OF_ASC_NODE": "301.715",
        "REV_AT_EPOCH": "99967",
        "TLE_LINE0": "0 VANGUARD 1",
        "TLE_LINE1": "1 00005U 58002B   15101.52801903  .00000511  00000-0  67601-3 0  9996",
        "TLE_LINE2": "2 00005 034.2452 301.7150 1844781 111.0372 269.6771 10.84560666999672"
    },
     {
        "ARG_OF_PERICENTER": "9.7969",
        "BSTAR": "0.0004253",
        "CLASSIFICATION_TYPE": "U",
        "COMMENT": "GENERATED VIA SPACETRACK.ORG API",
        "ECCENTRICITY": "0.1470731",
        "ELEMENT_SET_NO": "999",
        "EPHEMERIS_TYPE": "0",
        "EPOCH": "2015-04-12 12:03:35",
        "EPOCH_MICROSECONDS": "275104",
        "FILE": "1854983",
        "INCLINATION": "32.8698",
        "INTLDES": "59001A",
        "MEAN_ANOMALY": "352.8299",
        "MEAN_MOTION": "11.8484431",
        "MEAN_MOTION_DDOT": "0",
        "MEAN_MOTION_DOT": "7.89e-06",
        "NORAD_CAT_ID": "11",
        "OBJECT_ID": "1959-001A",
        "OBJECT_NAME": "VANGUARD 2",
        "OBJECT_NUMBER": "11",
        "OBJECT_TYPE": "PAYLOAD",
        "ORDINAL": "1",
        "ORIGINATOR": "JSPOC",
        "RA_OF_ASC_NODE": "319.3384",
        "REV_AT_EPOCH": "39202",
        "TLE_LINE0": "0 VANGUARD 2",
        "TLE_LINE1": "1 00011U 59001A   15102.50249161  .00000789  00000-0  42530-3 0  9995",
        "TLE_LINE2": "2 00011 032.8698 319.3384 1470731 009.7969 352.8299 11.84844310392022"
    },
    {
        "ARG_OF_PERICENTER": "201.7337",
        "BSTAR": "0.00041045",
        "CLASSIFICATION_TYPE": "U",
        "COMMENT": "GENERATED VIA SPACETRACK.ORG API",
        "ECCENTRICITY": "0.1668434",
        "ELEMENT_SET_NO": "999",
        "EPHEMERIS_TYPE": "0",
        "EPOCH": "2015-04-11 12:11:08",
        "EPOCH_MICROSECONDS": "568383",
        "FILE": "1854688",
        "INCLINATION": "32.9015",
        "INTLDES": "59001B",
        "MEAN_ANOMALY": "150.3446",
        "MEAN_MOTION": "11.4357829",
        "MEAN_MOTION_DDOT": "0",
        "MEAN_MOTION_DOT": "7.17e-06",
        "NORAD_CAT_ID": "12",
        "OBJECT_ID": "1959-001B",
        "OBJECT_NAME": "VANGUARD R/B",
        "OBJECT_NUMBER": "12",
        "OBJECT_TYPE": "ROCKET BODY",
        "ORDINAL": "1",
        "ORIGINATOR": "JSPOC",
        "RA_OF_ASC_NODE": "135.2586",
        "REV_AT_EPOCH": "30558",
        "TLE_LINE0": "0 VANGUARD R/B",
        "TLE_LINE1": "1 00012U 59001B   15101.50773806  .00000717  00000-0  41045-3 0  9994",
        "TLE_LINE2": "2 00012 032.9015 135.2586 1668434 201.7337 150.3446 11.43578290305584"
    },
    {
        "ARG_OF_PERICENTER": "176.7334",
        "BSTAR": "0.00054948",
        "CLASSIFICATION_TYPE": "U",
        "COMMENT": "GENERATED VIA SPACETRACK.ORG API",
        "ECCENTRICITY": "0.202273",
        "ELEMENT_SET_NO": "999",
        "EPHEMERIS_TYPE": "0",
        "EPOCH": "2015-04-12 11:01:16",
        "EPOCH_MICROSECONDS": "849920",
        "FILE": "1855002",
        "INCLINATION": "34.2609",
        "INTLDES": "58002A",
        "MEAN_ANOMALY": "184.8984",
        "MEAN_MOTION": "10.48480578",
        "MEAN_MOTION_DDOT": "0",
        "MEAN_MOTION_DOT": "3.94e-06",
        "NORAD_CAT_ID": "16",
        "OBJECT_ID": "1958-002A",
        "OBJECT_NAME": "VANGUARD R/B",
        "OBJECT_NUMBER": "16",
        "OBJECT_TYPE": "ROCKET BODY",
        "ORDINAL": "1",
        "ORIGINATOR": "JSPOC",
        "RA_OF_ASC_NODE": "220.1722",
        "REV_AT_EPOCH": "26009",
        "TLE_LINE0": "0 VANGUARD R/B",
        "TLE_LINE1": "1 00016U 58002A   15102.45922280  .00000394  00000-0  54948-3 0  9992",
        "TLE_LINE2": "2 00016 034.2609 220.1722 2022730 176.7334 184.8984 10.48480578260090"
    },
    {
        "ARG_OF_PERICENTER": "309.2559",
        "BSTAR": "0.00094319",
        "CLASSIFICATION_TYPE": "U",
        "COMMENT": "GENERATED VIA SPACETRACK.ORG API",
        "ECCENTRICITY": "0.1670343",
        "ELEMENT_SET_NO": "999",
        "EPHEMERIS_TYPE": "0",
        "EPOCH": "2015-04-12 08:47:04",
        "EPOCH_MICROSECONDS": "765632",
        "FILE": "1854955",
        "INCLINATION": "33.3516",
        "INTLDES": "59007A",
        "MEAN_ANOMALY": "37.1069",
        "MEAN_MOTION": "11.54583568",
        "MEAN_MOTION_DDOT": "0",
        "MEAN_MOTION_DOT": "2.302e-05",
        "NORAD_CAT_ID": "20",
        "OBJECT_ID": "1959-007A",
        "OBJECT_NAME": "VANGUARD 3",
        "OBJECT_NUMBER": "20",
        "OBJECT_TYPE": "PAYLOAD",
        "ORDINAL": "1",
        "ORIGINATOR": "JSPOC",
        "RA_OF_ASC_NODE": "83.0021",
        "REV_AT_EPOCH": "1162",
        "TLE_LINE0": "0 VANGUARD 3",
        "TLE_LINE1": "1 00020U 59007A   15102.36602738  .00002302  00000-0  94319-3 0  9993",
        "TLE_LINE2": "2 00020 033.3516 083.0021 1670343 309.2559 037.1069 11.54583568 11628"
    }
]